[{"OBJECT_NAME":"NEXTSAT-2","OBJECT_ID":"2023-072A","EPOCH":"2026-03-09T23:10:55.073280","MEAN_MOTION":15.26393087,"ECCENTRICITY":0.00062633,"INCLINATION":97.5306,"RA_OF_ASC_NODE":265.1019,"ARG_OF_PERICENTER":22.4193,"MEAN_ANOMALY":337.7318,"EPHEMERIS_TYPE":0,"CLASSIFICATION_TYPE":"U","NORAD_CAT_ID":56743,"ELEMENT_SET_NO":999,"REV_AT_EPOCH":15445,"BSTAR":0.00056400163,"MEAN_MOTION_DOT":0.00014622,"MEAN_MOTION_DDOT":0},{"OBJECT_NAME":"STARLINK-32452","OBJECT_ID":"2024-210C","EPOCH":"2026-03-09T08:58:34.648032","MEAN_MOTION":15.27602569,"ECCENTRICITY":0.00020409,"INCLINATION":42.9996,"RA_OF_ASC_NODE":174.5182,"ARG_OF_PERICENTER":276.0665,"MEAN_ANOMALY":83.9954,"EPHEMERIS_TYPE":0,"CLASSIFICATION_TYPE":"U","NORAD_CAT_ID":61961,"ELEMENT_SET_NO":999,"REV_AT_EPOCH":7494,"BSTAR":0.0013963115,"MEAN_MOTION_DOT":0.00038389,"MEAN_MOTION_DDOT":0}]
